{
  "type": "FeatureCollection",
  "features": [
    {
      "type": "Feature",
      "properties": {
        "norad_id": 58701,
        "name": "TIANMU-1 16",
        "group": "weather",
        "lat": -34.85642668228415,
        "lon": -6.719150300718088,
        "alt_km": 495.82766578635164,
        "timestamp": "2025-12-23T16:57:11.988650+00:00",
        "meta_object_name": "TIANMU-1 16",
        "meta_object_id": "2024-004B",
        "meta_epoch": "2025-12-23T06:33:39.823776",
        "meta_mean_motion": 15.24567099,
        "meta_eccentricity": 0.00043679,
        "meta_inclination": 97.4564,
        "meta_ra_of_asc_node": 178.0836,
        "meta_arg_of_pericenter": 247.9348,
        "meta_mean_anomaly": 112.1426,
        "meta_ephemeris_type": 0,
        "meta_classification_type": "U",
        "meta_norad_cat_id": 58701,
        "meta_element_set_no": 999,
        "meta_rev_at_epoch": 10895,
        "meta_bstar": 0.00031932083,
        "meta_mean_motion_dot": 7.797e-05,
        "meta_mean_motion_ddot": 0,
        "tle_line1": "1 58701U 24004B   25357.27337759  .00007797  00000+0  31932-3 0  9996",
        "tle_line2": "2 58701  97.4564 178.0836 0004367 247.9348 112.1426 15.24567099108956"
      },
      "geometry": {
        "type": "Point",
        "coordinates": [
          -6.719150300718088,
          -34.85642668228415
        ]
      }
    },
    {
      "type": "Feature",
      "properties": {
        "norad_id": 58702,
        "name": "TIANMU-1 17",
        "group": "weather",
        "lat": -57.91027052350118,
        "lon": -169.00812939630202,
        "alt_km": 497.6371984849584,
        "timestamp": "2025-12-23T16:57:11.988660+00:00",
        "meta_object_name": "TIANMU-1 17",
        "meta_object_id": "2024-004C",
        "meta_epoch": "2025-12-23T07:45:33.532128",
        "meta_mean_motion": 15.24610935,
        "meta_eccentricity": 0.00035445,
        "meta_inclination": 97.4598,
        "meta_ra_of_asc_node": 178.5488,
        "meta_arg_of_pericenter": 248.8751,
        "meta_mean_anomaly": 111.2107,
        "meta_ephemeris_type": 0,
        "meta_classification_type": "U",
        "meta_norad_cat_id": 58702,
        "meta_element_set_no": 999,
        "meta_rev_at_epoch": 10895,
        "meta_bstar": 0.00031201242,
        "meta_mean_motion_dot": 7.626e-05,
        "meta_mean_motion_ddot": 0,
        "tle_line1": "1 58702U 24004C   25357.32330477  .00007626  00000+0  31201-3 0  9993",
        "tle_line2": "2 58702  97.4598 178.5488 0003544 248.8751 111.2107 15.24610935108950"
      },
      "geometry": {
        "type": "Point",
        "coordinates": [
          -169.00812939630202,
          -57.91027052350118
        ]
      }
    },
    {
      "type": "Feature",
      "properties": {
        "norad_id": 58703,
        "name": "TIANMU-1 18",
        "group": "weather",
        "lat": 31.897647514988638,
        "lon": 174.44892541290085,
        "alt_km": 491.92846050968274,
        "timestamp": "2025-12-23T16:57:11.988671+00:00",
        "meta_object_name": "TIANMU-1 18",
        "meta_object_id": "2024-004D",
        "meta_epoch": "2025-12-23T07:21:40.708224",
        "meta_mean_motion": 15.24594639,
        "meta_eccentricity": 0.00029144,
        "meta_inclination": 97.4616,
        "meta_ra_of_asc_node": 178.7298,
        "meta_arg_of_pericenter": 245.9458,
        "meta_mean_anomaly": 114.1475,
        "meta_ephemeris_type": 0,
        "meta_classification_type": "U",
        "meta_norad_cat_id": 58703,
        "meta_element_set_no": 999,
        "meta_rev_at_epoch": 10895,
        "meta_bstar": 0.00028875211,
        "meta_mean_motion_dot": 7.048e-05,
        "meta_mean_motion_ddot": 0,
        "tle_line1": "1 58703U 24004D   25357.30672116  .00007048  00000+0  28875-3 0  9992",
        "tle_line2": "2 58703  97.4616 178.7298 0002914 245.9458 114.1475 15.24594639108957"
      },
      "geometry": {
        "type": "Point",
        "coordinates": [
          174.44892541290085,
          31.897647514988638
        ]
      }
    },
    {
      "type": "Feature",
      "properties": {
        "norad_id": 58990,
        "name": "INSAT-3DS",
        "group": "weather",
        "lat": -0.0092015611130655,
        "lon": 68.90031672061754,
        "alt_km": 35790.60766667304,
        "timestamp": "2025-12-23T16:57:11.988683+00:00",
        "meta_object_name": "INSAT-3DS",
        "meta_object_id": "2024-033A",
        "meta_epoch": "2025-12-23T03:15:05.679360",
        "meta_mean_motion": 1.00271675,
        "meta_eccentricity": 0.00011636,
        "meta_inclination": 0.0568,
        "meta_ra_of_asc_node": 100.6397,
        "meta_arg_of_pericenter": 173.1489,
        "meta_mean_anomaly": 309.0238,
        "meta_ephemeris_type": 0,
        "meta_classification_type": "U",
        "meta_norad_cat_id": 58990,
        "meta_element_set_no": 999,
        "meta_rev_at_epoch": 4530,
        "meta_bstar": 0,
        "meta_mean_motion_dot": -1.35e-06,
        "meta_mean_motion_ddot": 0,
        "tle_line1": "1 58990U 24033A   25357.13548240 -.00000135  00000+0  00000+0 0  9990",
        "tle_line2": "2 58990   0.0568 100.6397 0001163 173.1489 309.0238  1.00271675 45308"
      },
      "geometry": {
        "type": "Point",
        "coordinates": [
          68.90031672061754,
          -0.0092015611130655
        ]
      }
    },
    {
      "type": "Feature",
      "properties": {
        "norad_id": 59051,
        "name": "METEOR-M2 4",
        "group": "weather",
        "lat": 37.709952291099434,
        "lon": 141.22566492726463,
        "alt_km": 819.0916045926488,
        "timestamp": "2025-12-23T16:57:11.988734+00:00",
        "meta_object_name": "METEOR-M2 4",
        "meta_object_id": "2024-039A",
        "meta_epoch": "2025-12-23T07:50:53.027232",
        "meta_mean_motion": 14.22402754,
        "meta_eccentricity": 0.00064834,
        "meta_inclination": 98.6782,
        "meta_ra_of_asc_node": 314.0706,
        "meta_arg_of_pericenter": 326.9138,
        "meta_mean_anomaly": 33.1633,
        "meta_ephemeris_type": 0,
        "meta_classification_type": "U",
        "meta_norad_cat_id": 59051,
        "meta_element_set_no": 999,
        "meta_rev_at_epoch": 9426,
        "meta_bstar": 2.7619976e-05,
        "meta_mean_motion_dot": 1.8e-07,
        "meta_mean_motion_ddot": 0,
        "tle_line1": "1 59051U 24039A   25357.32700263  .00000018  00000+0  27620-4 0  9992",
        "tle_line2": "2 59051  98.6782 314.0706 0006483 326.9138  33.1633 14.22402754 94267"
      },
      "geometry": {
        "type": "Point",
        "coordinates": [
          141.22566492726463,
          37.709952291099434
        ]
      }
    },
    {
      "type": "Feature",
      "properties": {
        "norad_id": 60133,
        "name": "GOES 19",
        "group": "weather",
        "lat": -0.0004226845244307575,
        "lon": -88.40653523328078,
        "alt_km": 35783.50586999393,
        "timestamp": "2025-12-23T16:57:11.988759+00:00",
        "meta_object_name": "GOES 19",
        "meta_object_id": "2024-119A",
        "meta_epoch": "2025-12-23T05:35:35.570112",
        "meta_mean_motion": 1.00272036,
        "meta_eccentricity": 9.918e-05,
        "meta_inclination": 0.0127,
        "meta_ra_of_asc_node": 251.6358,
        "meta_arg_of_pericenter": 72.5515,
        "meta_mean_anomaly": 136.5531,
        "meta_ephemeris_type": 0,
        "meta_classification_type": "U",
        "meta_norad_cat_id": 60133,
        "meta_element_set_no": 999,
        "meta_rev_at_epoch": 520,
        "meta_bstar": 0,
        "meta_mean_motion_dot": -2.27e-06,
        "meta_mean_motion_ddot": 0,
        "tle_line1": "1 60133U 24119A   25357.23305058 -.00000227  00000+0  00000+0 0  9998",
        "tle_line2": "2 60133   0.0127 251.6358 0000991  72.5515 136.5531  1.00272036  5201"
      },
      "geometry": {
        "type": "Point",
        "coordinates": [
          -88.40653523328078,
          -0.0004226845244307575
        ]
      }
    },
    {
      "type": "Feature",
      "properties": {
        "norad_id": 65815,
        "name": "FENGYUN 3H",
        "group": "weather",
        "lat": -75.12822223451084,
        "lon": -27.91708669580239,
        "alt_km": 833.5293746175548,
        "timestamp": "2025-12-23T16:57:11.988772+00:00",
        "meta_object_name": "FENGYUN 3H",
        "meta_object_id": "2025-219A",
        "meta_epoch": "2025-12-23T03:47:23.852544",
        "meta_mean_motion": 14.19907311,
        "meta_eccentricity": 7.859e-05,
        "meta_inclination": 98.66,
        "meta_ra_of_asc_node": 296.5227,
        "meta_arg_of_pericenter": 107.0964,
        "meta_mean_anomaly": 253.0299,
        "meta_ephemeris_type": 0,
        "meta_classification_type": "U",
        "meta_norad_cat_id": 65815,
        "meta_element_set_no": 999,
        "meta_rev_at_epoch": 1240,
        "meta_bstar": 6.2595142e-05,
        "meta_mean_motion_dot": 9e-07,
        "meta_mean_motion_ddot": 0,
        "tle_line1": "1 65815U 25219A   25357.15791496  .00000090  00000+0  62595-4 0  9997",
        "tle_line2": "2 65815  98.6600 296.5227 0000785 107.0964 253.0299 14.19907311 12409"
      },
      "geometry": {
        "type": "Point",
        "coordinates": [
          -27.91708669580239,
          -75.12822223451084
        ]
      }
    }
  ]
}